[
{"CCSDS_OMM_VERS":"2.0",
"COMMENT":"GENERATED VIA SPACE-TRACK.ORG API",
"CREATION_DATE":"2022-10-27T02:26:54",
"ORIGINATOR":"18 SPCS",
"OBJECT_NAME":"VANGUARD 1",
"OBJECT_ID":"1958-002B",
"CENTER_NAME":"EARTH",
"REF_FRAME":"TEME",
"TIME_SYSTEM":"UTC",
"MEAN_ELEMENT_THEORY":"SGP4",
"EPOCH":"2022-10-26T18:03:44.462016",
"MEAN_MOTION":"10.85025537",
"ECCENTRICITY":"0.18471630",
"INCLINATION":"34.2584",
"RA_OF_ASC_NODE":"94.7623",
"ARG_OF_PERICENTER":"268.5732",
"MEAN_ANOMALY":"70.3721",
"EPHEMERIS_TYPE":"0",
"CLASSIFICATION_TYPE":"U",
"NORAD_CAT_ID":"5",
"ELEMENT_SET_NO":"999",
"REV_AT_EPOCH":"29880",
"BSTAR":"0.00020760000000",
"MEAN_MOTION_DOT":"0.00000184",
"MEAN_MOTION_DDOT":"0.0000000000000",
"SEMIMAJOR_AXIS":"8618.702",
"PERIOD":"132.716",
"APOAPSIS":"3832.582",
"PERIAPSIS":"648.552",
"OBJECT_TYPE":"PAYLOAD",
"RCS_SIZE":"SMALL",
"COUNTRY_CODE":"US",
"LAUNCH_DATE":"1958-03-17",
"SITE":"AFETR",
"DECAY_DATE":null,
"FILE":"3635100",
"GP_ID":"216244273",
"TLE_LINE0":"0 VANGUARD 1",
"TLE_LINE1":"1 00005U 58002B   22299.75259794  .00000184  00000-0  20760-3 0  9993",
"TLE_LINE2":"2 00005  34.2584  94.7623 1847163 268.5732  70.3721 10.85025537298800"},
{"CCSDS_OMM_VERS":"2.0",
"COMMENT":"GENERATED VIA SPACE-TRACK.ORG API",
"CREATION_DATE":"2022-10-27T19:20:48",
"ORIGINATOR":"18 SPCS",
"OBJECT_NAME":"VANGUARD 1",
"OBJECT_ID":"1958-002B",
"CENTER_NAME":"EARTH",
"REF_FRAME":"TEME",
"TIME_SYSTEM":"UTC",
"MEAN_ELEMENT_THEORY":"SGP4",
"EPOCH":"2022-10-27T11:44:18.482784",
"MEAN_MOTION":"10.85025878",
"ECCENTRICITY":"0.18471690",
"INCLINATION":"34.2586",
"RA_OF_ASC_NODE":"92.4931",
"ARG_OF_PERICENTER":"271.8866",
"MEAN_ANOMALY":"67.2303",
"EPHEMERIS_TYPE":"0",
"CLASSIFICATION_TYPE":"U",
"NORAD_CAT_ID":"5",
"ELEMENT_SET_NO":"999",
"REV_AT_EPOCH":"29888",
"BSTAR":"0.00021940000000",
"MEAN_MOTION_DOT":"0.00000193",
"MEAN_MOTION_DDOT":"0.0000000000000",
"SEMIMAJOR_AXIS":"8618.700",
"PERIOD":"132.716",
"APOAPSIS":"3832.585",
"PERIAPSIS":"648.546",
"OBJECT_TYPE":"PAYLOAD",
"RCS_SIZE":"SMALL",
"COUNTRY_CODE":"US",
"LAUNCH_DATE":"1958-03-17",
"SITE":"AFETR",
"DECAY_DATE":null,
"FILE":"3635758",
"GP_ID":"216282913",
"TLE_LINE0":"0 VANGUARD 1",
"TLE_LINE1":"1 00005U 58002B   22300.48910281  .00000193  00000-0  21940-3 0  9992",
"TLE_LINE2":"2 00005  34.2586  92.4931 1847169 271.8866  67.2303 10.85025878298887"},
{"CCSDS_OMM_VERS":"2.0",
"COMMENT":"GENERATED VIA SPACE-TRACK.ORG API",
"CREATION_DATE":"2022-10-28T04:08:14",
"ORIGINATOR":"18 SPCS",
"OBJECT_NAME":"VANGUARD 1",
"OBJECT_ID":"1958-002B",
"CENTER_NAME":"EARTH",
"REF_FRAME":"TEME",
"TIME_SYSTEM":"UTC",
"MEAN_ELEMENT_THEORY":"SGP4",
"EPOCH":"2022-10-27T18:22:01.640064",
"MEAN_MOTION":"10.85025876",
"ECCENTRICITY":"0.18471610",
"INCLINATION":"34.2587",
"RA_OF_ASC_NODE":"91.6422",
"ARG_OF_PERICENTER":"273.1290",
"MEAN_ANOMALY":"66.0695",
"EPHEMERIS_TYPE":"0",
"CLASSIFICATION_TYPE":"U",
"NORAD_CAT_ID":"5",
"ELEMENT_SET_NO":"999",
"REV_AT_EPOCH":"29891",
"BSTAR":"0.00020746000000",
"MEAN_MOTION_DOT":"0.00000183",
"MEAN_MOTION_DDOT":"0.0000000000000",
"SEMIMAJOR_AXIS":"8618.700",
"PERIOD":"132.716",
"APOAPSIS":"3832.578",
"PERIAPSIS":"648.553",
"OBJECT_TYPE":"PAYLOAD",
"RCS_SIZE":"SMALL",
"COUNTRY_CODE":"US",
"LAUNCH_DATE":"1958-03-17",
"SITE":"AFETR",
"DECAY_DATE":null,
"FILE":"3636022",
"GP_ID":"216313913",
"TLE_LINE0":"0 VANGUARD 1",
"TLE_LINE1":"1 00005U 58002B   22300.76529676  .00000183  00000-0  20746-3 0  9999",
"TLE_LINE2":"2 00005  34.2587  91.6422 1847161 273.1290  66.0695 10.85025876298915"},
{"CCSDS_OMM_VERS":"2.0",
"COMMENT":"GENERATED VIA SPACE-TRACK.ORG API",
"CREATION_DATE":"2022-10-29T02:27:52",
"ORIGINATOR":"18 SPCS",
"OBJECT_NAME":"VANGUARD 1",
"OBJECT_ID":"1958-002B",
"CENTER_NAME":"EARTH",
"REF_FRAME":"TEME",
"TIME_SYSTEM":"UTC",
"MEAN_ELEMENT_THEORY":"SGP4",
"EPOCH":"2022-10-28T18:40:21.501696",
"MEAN_MOTION":"10.85026277",
"ECCENTRICITY":"0.18471520",
"INCLINATION":"34.2588",
"RA_OF_ASC_NODE":"88.5220",
"ARG_OF_PERICENTER":"277.6848",
"MEAN_ANOMALY":"61.8900",
"EPHEMERIS_TYPE":"0",
"CLASSIFICATION_TYPE":"U",
"NORAD_CAT_ID":"5",
"ELEMENT_SET_NO":"999",
"REV_AT_EPOCH":"29902",
"BSTAR":"0.00021591000000",
"MEAN_MOTION_DOT":"0.00000189",
"MEAN_MOTION_DDOT":"0.0000000000000",
"SEMIMAJOR_AXIS":"8618.698",
"PERIOD":"132.716",
"APOAPSIS":"3832.568",
"PERIAPSIS":"648.559",
"OBJECT_TYPE":"PAYLOAD",
"RCS_SIZE":"SMALL",
"COUNTRY_CODE":"US",
"LAUNCH_DATE":"1958-03-17",
"SITE":"AFETR",
"DECAY_DATE":null,
"FILE":"3637111",
"GP_ID":"216385889",
"TLE_LINE0":"0 VANGUARD 1",
"TLE_LINE1":"1 00005U 58002B   22301.77802664  .00000189  00000-0  21591-3 0  9997",
"TLE_LINE2":"2 00005  34.2588  88.5220 1847152 277.6848  61.8900 10.85026277299026"},
{"CCSDS_OMM_VERS":"2.0",
"COMMENT":"GENERATED VIA SPACE-TRACK.ORG API",
"CREATION_DATE":"2022-10-28T22:56:12",
"ORIGINATOR":"18 SPCS",
"OBJECT_NAME":"VANGUARD 1",
"OBJECT_ID":"1958-002B",
"CENTER_NAME":"EARTH",
"REF_FRAME":"TEME",
"TIME_SYSTEM":"UTC",
"MEAN_ELEMENT_THEORY":"SGP4",
"EPOCH":"2022-10-28T18:40:21.501696",
"MEAN_MOTION":"10.85026277",
"ECCENTRICITY":"0.18471520",
"INCLINATION":"34.2588",
"RA_OF_ASC_NODE":"88.5220",
"ARG_OF_PERICENTER":"277.6848",
"MEAN_ANOMALY":"61.8900",
"EPHEMERIS_TYPE":"0",
"CLASSIFICATION_TYPE":"U",
"NORAD_CAT_ID":"5",
"ELEMENT_SET_NO":"999",
"REV_AT_EPOCH":"29911",
"BSTAR":"0.00021591000000",
"MEAN_MOTION_DOT":"0.00000189",
"MEAN_MOTION_DDOT":"0.0000000000000",
"SEMIMAJOR_AXIS":"8618.698",
"PERIOD":"132.716",
"APOAPSIS":"3832.568",
"PERIAPSIS":"648.559",
"OBJECT_TYPE":"PAYLOAD",
"RCS_SIZE":"SMALL",
"COUNTRY_CODE":"US",
"LAUNCH_DATE":"1958-03-17",
"SITE":"AFETR",
"DECAY_DATE":null,
"FILE":"3636920",
"GP_ID":"216381441",
"TLE_LINE0":"0 VANGUARD 1",
"TLE_LINE1":"1     5U 58002B   22301.77802664  .00000189  00000-0  21591-3 0  9997",
"TLE_LINE2":"2     5  34.2588  88.5220 1847152 277.6848  61.8900 10.85026277299116"},
{"CCSDS_OMM_VERS":"2.0",
"COMMENT":"GENERATED VIA SPACE-TRACK.ORG API",
"CREATION_DATE":"2022-10-29T18:36:28",
"ORIGINATOR":"18 SPCS",
"OBJECT_NAME":"VANGUARD 1",
"OBJECT_ID":"1958-002B",
"CENTER_NAME":"EARTH",
"REF_FRAME":"TEME",
"TIME_SYSTEM":"UTC",
"MEAN_ELEMENT_THEORY":"SGP4",
"EPOCH":"2022-10-29T01:18:05.524704",
"MEAN_MOTION":"10.85026461",
"ECCENTRICITY":"0.18471510",
"INCLINATION":"34.2588",
"RA_OF_ASC_NODE":"87.6711",
"ARG_OF_PERICENTER":"278.9274",
"MEAN_ANOMALY":"60.7705",
"EPHEMERIS_TYPE":"0",
"CLASSIFICATION_TYPE":"U",
"NORAD_CAT_ID":"5",
"ELEMENT_SET_NO":"999",
"REV_AT_EPOCH":"29905",
"BSTAR":"0.00022215000000",
"MEAN_MOTION_DOT":"0.00000194",
"MEAN_MOTION_DDOT":"0.0000000000000",
"SEMIMAJOR_AXIS":"8618.697",
"PERIOD":"132.716",
"APOAPSIS":"3832.566",
"PERIAPSIS":"648.559",
"OBJECT_TYPE":"PAYLOAD",
"RCS_SIZE":"SMALL",
"COUNTRY_CODE":"US",
"LAUNCH_DATE":"1958-03-17",
"SITE":"AFETR",
"DECAY_DATE":null,
"FILE":"3637424",
"GP_ID":"216418707",
"TLE_LINE0":"0 VANGUARD 1",
"TLE_LINE1":"1 00005U 58002B   22302.05423061  .00000194  00000-0  22215-3 0  9999",
"TLE_LINE2":"2 00005  34.2588  87.6711 1847151 278.9274  60.7705 10.85026461299056"},
{"CCSDS_OMM_VERS":"2.0",
"COMMENT":"GENERATED VIA SPACE-TRACK.ORG API",
"CREATION_DATE":"2022-10-30T05:36:09",
"ORIGINATOR":"18 SPCS",
"OBJECT_NAME":"VANGUARD 1",
"OBJECT_ID":"1958-002B",
"CENTER_NAME":"EARTH",
"REF_FRAME":"TEME",
"TIME_SYSTEM":"UTC",
"MEAN_ELEMENT_THEORY":"SGP4",
"EPOCH":"2022-10-29T16:46:09.031296",
"MEAN_MOTION":"10.85026657",
"ECCENTRICITY":"0.18471290",
"INCLINATION":"34.2588",
"RA_OF_ASC_NODE":"85.6854",
"ARG_OF_PERICENTER":"281.8270",
"MEAN_ANOMALY":"58.1918",
"EPHEMERIS_TYPE":"0",
"CLASSIFICATION_TYPE":"U",
"NORAD_CAT_ID":"5",
"ELEMENT_SET_NO":"999",
"REV_AT_EPOCH":"29912",
"BSTAR":"0.00021817000000",
"MEAN_MOTION_DOT":"0.00000190",
"MEAN_MOTION_DDOT":"0.0000000000000",
"SEMIMAJOR_AXIS":"8618.696",
"PERIOD":"132.716",
"APOAPSIS":"3832.545",
"PERIAPSIS":"648.577",
"OBJECT_TYPE":"PAYLOAD",
"RCS_SIZE":"SMALL",
"COUNTRY_CODE":"US",
"LAUNCH_DATE":"1958-03-17",
"SITE":"AFETR",
"DECAY_DATE":null,
"FILE":"3637863",
"GP_ID":"216454751",
"TLE_LINE0":"0 VANGUARD 1",
"TLE_LINE1":"1 00005U 58002B   22302.69871564  .00000190  00000-0  21817-3 0  9997",
"TLE_LINE2":"2 00005  34.2588  85.6854 1847129 281.8270  58.1918 10.85026657299128"},
{"CCSDS_OMM_VERS":"2.0",
"COMMENT":"GENERATED VIA SPACE-TRACK.ORG API",
"CREATION_DATE":"2022-10-31T17:13:39",
"ORIGINATOR":"18 SPCS",
"OBJECT_NAME":"VANGUARD 1",
"OBJECT_ID":"1958-002B",
"CENTER_NAME":"EARTH",
"REF_FRAME":"TEME",
"TIME_SYSTEM":"UTC",
"MEAN_ELEMENT_THEORY":"SGP4",
"EPOCH":"2022-10-31T10:45:14.816160",
"MEAN_MOTION":"10.85027410",
"ECCENTRICITY":"0.18470860",
"INCLINATION":"34.2587",
"RA_OF_ASC_NODE":"80.2958",
"ARG_OF_PERICENTER":"289.6969",
"MEAN_ANOMALY":"51.4147",
"EPHEMERIS_TYPE":"0",
"CLASSIFICATION_TYPE":"U",
"NORAD_CAT_ID":"5",
"ELEMENT_SET_NO":"999",
"REV_AT_EPOCH":"29931",
"BSTAR":"0.00025364000000",
"MEAN_MOTION_DOT":"0.00000217",
"MEAN_MOTION_DDOT":"0.0000000000000",
"SEMIMAJOR_AXIS":"8618.692",
"PERIOD":"132.716",
"APOAPSIS":"3832.504",
"PERIAPSIS":"648.611",
"OBJECT_TYPE":"PAYLOAD",
"RCS_SIZE":"SMALL",
"COUNTRY_CODE":"US",
"LAUNCH_DATE":"1958-03-17",
"SITE":"AFETR",
"DECAY_DATE":null,
"FILE":"3638016",
"GP_ID":"216533613",
"TLE_LINE0":"0 VANGUARD 1",
"TLE_LINE1":"1 00005U 58002B   22304.44808815  .00000217  00000-0  25364-3 0  9992",
"TLE_LINE2":"2 00005  34.2587  80.2958 1847086 289.6969  51.4147 10.85027410299315"}]